[
    {
        "Altitude(m)": 617710.6486486277,
        "Argument of Periapsis(deg)": 0.0,
        "Eccentricity": 0.0,
        "Inclination(deg)": 60.0,
        "Latitude(deg)": -41.10268447357362,
        "Longitude(deg)": 159.96657844279105,
        "Mean Anomaly(deg)": -49.09089999999999,
        "RAAN(deg)": 290.0,
        "Satellite Name": "Test1 1295",
        "Satellite Number": 1295,
        "Semi-Major Axis(m)": 6980739.136638005,
        "Time(s)": 0
    },
    {
        "Altitude(m)": 617517.9473101881,
        "Argument of Periapsis(deg)": 0.00010418945913296404,
        "Eccentricity": 0.0,
        "Inclination(deg)": 60.0,
        "Latitude(deg)": -40.636891945736444,
        "Longitude(deg)": 160.46337307201102,
        "Mean Anomaly(deg)": -48.470793854538144,
        "RAAN(deg)": 289.99957995086027,
        "Satellite Name": "Test1 1295",
        "Satellite Number": 1295,
        "Semi-Major Axis(m)": 6980739.136638005,
        "Time(s)": 10
    }
]